IRIDIUM 155             
1 43573U 18061E   25092.45312980  .00000120  00000+0  35921-4 0  9994
2 43573  86.3950 240.7991 0001891  89.4407 270.7006 14.34217956350189
IRIDIUM 154             
1 43574U 18061F   25092.43410255  .00000187  00000+0  59535-4 0  9997
2 43574  86.3957 240.9189 0002079  95.6458 264.4975 14.34218737350231
IRIDIUM 163             
1 43575U 18061G   25092.48484385  .00000670  00000+0  23204-3 0  9998
2 43575  86.3953 240.8269 0002131  90.8332 269.3108 14.34219137350218
IRIDIUM 156             
1 43576U 18061H   25092.45947267  .00000379  00000+0  12823-3 0  9990
2 43576  86.3953 240.8443 0001705  91.7725 268.3666 14.34218746350207
IRIDIUM 164             
1 43577U 18061J   25092.44044655  .00000681  00000+0  23610-3 0  9991
2 43577  86.3954 240.8855 0002037 101.9319 258.2106 14.34219013350247
IRIDIUM 159             
1 43578U 18061K   25092.47849948  .00000018  00000+0 -53986-6 0  9990
2 43578  86.3954 240.8155 0002230  96.4534 263.6916 14.34216348350217
IRIDIUM 180             
1 43922U 19002A   25092.47800019  .00000542  00000+0  18636-3 0  9996
2 43922  86.4045 177.7848 0002231  93.4996 266.6455 14.34218871325822
IRIDIUM 176             
1 43923U 19002B   25092.32045623  .00002085  00000+0  32676-3 0  9997
2 43923  86.6166 177.8500 0002621  80.5643 279.5870 14.72254521334383
IRIDIUM 168             
1 43924U 19002C   25092.61119236  .00000561  00000+0  19329-3 0  9999
2 43924  86.4045 177.7940 0002207  96.9315 263.2132 14.34219704325824
IRIDIUM 173             
1 43925U 19002D   25092.59850722  .00000475  00000+0  16254-3 0  9997
2 43925  86.4042 177.7064 0002161  91.2305 268.9139 14.34216748325807
IRIDIUM 169             
1 43926U 19002E   25092.61644033  .00000674  00000+0  21378-3 0  9991
2 43926  86.4282 209.2624 0001672  52.8235 307.3116 14.38606976326880
IRIDIUM 172             
1 43927U 19002F   25092.59216446  .00000443  00000+0  15122-3 0  9996
2 43927  86.4041 177.7156 0002548  95.2143 264.9343 14.34219926325818
IRIDIUM 175             
1 43928U 19002G   25092.58714061  .00000277  00000+0  39940-4 0  9992
2 43928  86.1500 134.5817 0001237  95.0010 265.1347 14.72243833334415
IRIDIUM 171             
1 43929U 19002H   25092.29406167  .00000268  00000+0  88775-4 0  9996
2 43929  86.4051 178.0969 0002038 106.7514 253.3906 14.34219438325760
IRIDIUM 170             
1 43930U 19002J   25092.59849565  .00002303  00000+0  36118-3 0  9999
2 43930  86.6163 177.7393 0001876  95.9101 264.2330 14.72257871334436
IRIDIUM 167             
1 43931U 19002K   25092.49702449  .00000395  00000+0  13384-3 0  9997
2 43931  86.4043 177.7738 0001718 101.5055 258.6334 14.34219237325794
IRIDIUM 181             
1 56726U 23068S   25092.44888387  .00000887  00000+0  25752-3 0  9999
2 56726  86.4492 240.8503 0001946 110.1750 249.9660 14.43297279 98863
IRIDIUM 177             
1 56727U 23068T   25092.28966502  .00002772  00000+0  36108-3 0  9990
2 56727  86.2031 178.1299 0001952 112.3030 247.8398 14.80258934101145
IRIDIUM 174             
1 56728U 23068U   25092.48709992  .00003040  00000+0  39641-3 0  9995
2 56728  86.2039 178.1626 0002794  99.0462 261.1075 14.80239203101175
IRIDIUM 178             
1 56729U 23068V   25092.34639255  .00002852  00000+0  37175-3 0  9995
2 56729  86.6599 209.4563 0002146 107.1895 252.9562 14.80244259101155
IRIDIUM 179             
1 56730U 23068W   25092.61153828  .00003284  00000+0  42880-3 0  9993
2 56730  86.6826 216.9917 0002094  82.3860 277.7599 14.80226893101197
